{"type": "FeatureCollection", "features": [ {"type": "Feature", "properties": {"norad_id": 32289, "name": "YAOGAN-3", "group": "resource", "lat": 57.824313433370136, "lon": -151.9607264939297, "alt_km": 592.1321848303578, "timestamp": "2025-12-14T18:52:55.154788+00:00", "meta": {"OBJECT_NAME": "YAOGAN-3", "OBJECT_ID": "2007-055A", "EPOCH": "2025-12-14T00:36:33.117984", "MEAN_MOTION": 14.89867932, "ECCENTRICITY": 0.00012901, "INCLINATION": 97.8372, "RA_OF_ASC_NODE": 14.6385, "ARG_OF_PERICENTER": 79.4395, "MEAN_ANOMALY": 280.6968, "EPHEMERIS_TYPE": 0, "CLASSIFICATION_TYPE": "U", "NORAD_CAT_ID": 32289, "ELEMENT_SET_NO": 999, "REV_AT_EPOCH": 97828, "BSTAR": 0.00039927658, "MEAN_MOTION_DOT": 3.783e-05, "MEAN_MOTION_DDOT": 0}, "tle": {"line1": "1 32289U 07055A   25348.02538331  .00003783  00000+0  39928-3 0  9992", "line2": "2 32289  97.8372  14.6385 0001290  79.4395 280.6968 14.89867932978288"}}, "geometry": {"type": "Point", "coordinates": [-151.9607264939297, 57.824313433370136]}}, {"type": "Feature", "properties": {"norad_id": 32376, "name": "COSMO-SKYMED 2", "group": "resource", "lat": -16.331167051159834, "lon": 172.40576399940858, "alt_km": 627.6044360682099, "timestamp": "2025-12-14T18:52:55.154799+00:00", "meta": {"OBJECT_NAME": "COSMO-SKYMED 2", "OBJECT_ID": "2007-059A", "EPOCH": "2025-12-14T14:05:43.537344", "MEAN_MOTION": 14.82144731, "ECCENTRICITY": 0.0001392, "INCLINATION": 97.881, "RA_OF_ASC_NODE": 169.8833, "ARG_OF_PERICENTER": 83.8663, "MEAN_ANOMALY": 276.2709, "EPHEMERIS_TYPE": 0, "CLASSIFICATION_TYPE": "U", "NORAD_CAT_ID": 32376, "ELEMENT_SET_NO": 999, "REV_AT_EPOCH": 97465, "BSTAR": 9.3138e-05, "MEAN_MOTION_DOT": 6.89e-06, "MEAN_MOTION_DDOT": 0}, "tle": {"line1": "1 32376U 07059A   25348.58730946  .00000689  00000+0  93138-4 0  9996", "line2": "2 32376  97.8810 169.8833 0001392  83.8663 276.2709 14.82144731974652"}}, "geometry": {"type": "Point", "coordinates": [172.40576399940858, -16.331167051159834]}}, {"type": "Feature", "properties": {"norad_id": 32382, "name": "RADARSAT-2", "group": "resource", "lat": -81.31300283053513, "lon": 92.16619780351233, "alt_km": 799.9166735619747, "timestamp": "2025-12-14T18:52:55.154810+00:00", "meta": {"OBJECT_NAME": "RADARSAT-2", "OBJECT_ID": "2007-061A", "EPOCH": "2025-12-14T00:50:10.722048", "MEAN_MOTION": 14.29982388, "ECCENTRICITY": 0.00011105, "INCLINATION": 98.5804, "RA_OF_ASC_NODE": 352.6062, "ARG_OF_PERICENTER": 85.9887, "MEAN_ANOMALY": 274.1422, "EPHEMERIS_TYPE": 0, "CLASSIFICATION_TYPE": "U", "NORAD_CAT_ID": 32382, "ELEMENT_SET_NO": 999, "REV_AT_EPOCH": 93949, "BSTAR": 6.6345731e-05, "MEAN_MOTION_DOT": 1.27e-06, "MEAN_MOTION_DDOT": 0}, "tle": {"line1": "1 32382U 07061A   25348.03484632  .00000127  00000+0  66346-4 0  9992", "line2": "2 32382  98.5804 352.6062 0001110  85.9887 274.1422 14.29982388939496"}}, "geometry": {"type": "Point", "coordinates": [92.16619780351233, -81.31300283053513]}}, {"type": "Feature", "properties": {"norad_id": 32783, "name": "CARTOSAT-2A", "group": "resource", "lat": 77.54315947362373, "lon": -103.14007248281213, "alt_km": 627.03807579563, "timestamp": "2025-12-14T18:52:55.154820+00:00", "meta": {"OBJECT_NAME": "CARTOSAT-2A", "OBJECT_ID": "2008-021A", "EPOCH": "2025-12-14T00:34:18.534432", "MEAN_MOTION": 14.78940095, "ECCENTRICITY": 0.0011739, "INCLINATION": 97.7932, "RA_OF_ASC_NODE": 37.8069, "ARG_OF_PERICENTER": 0.6156, "MEAN_ANOMALY": 359.5068, "EPHEMERIS_TYPE": 0, "CLASSIFICATION_TYPE": "U", "NORAD_CAT_ID": 32783, "ELEMENT_SET_NO": 999, "REV_AT_EPOCH": 95143, "BSTAR": 0.00015228451, "MEAN_MOTION_DOT": 1.074e-05, "MEAN_MOTION_DDOT": 0}, "tle": {"line1": "1 32783U 08021A   25348.02382563  .00001074  00000+0  15228-3 0  9997", "line2": "2 32783  97.7932  37.8069 0011739   0.6156 359.5068 14.78940095951439"}}, "geometry": {"type": "Point", "coordinates": [-103.14007248281213, 77.54315947362373]}}, {"type": "Feature", "properties": {"norad_id": 33320, "name": "HUANJING 1A (HJ-1A)", "group": "resource", "lat": -2.4383057229724994, "lon": -22.672131711794037, "alt_km": 609.81964185182, "timestamp": "2025-12-14T18:52:55.154831+00:00", "meta": {"OBJECT_NAME": "HUANJING 1A (HJ-1A)", "OBJECT_ID": "2008-041A", "EPOCH": "2025-12-13T23:27:58.699872", "MEAN_MOTION": 14.83401596, "ECCENTRICITY": 0.00200182, "INCLINATION": 97.6542, "RA_OF_ASC_NODE": 336.2245, "ARG_OF_PERICENTER": 30.4833, "MEAN_ANOMALY": 329.7541, "EPHEMERIS_TYPE": 0, "CLASSIFICATION_TYPE": "U", "NORAD_CAT_ID": 33320, "ELEMENT_SET_NO": 999, "REV_AT_EPOCH": 93094, "BSTAR": 0.0003638844, "MEAN_MOTION_DOT": 2.945e-05, "MEAN_MOTION_DDOT": 0}, "tle": {"line1": "1 33320U 08041A   25347.97776273  .00002945  00000+0  36388-3 0  9993", "line2": "2 33320  97.6542 336.2245 0020018  30.4833 329.7541 14.83401596930940"}}, "geometry": {"type": "Point", "coordinates": [-22.672131711794037, -2.4383057229724994]}}, {"type": "Feature", "properties": {"norad_id": 33321, "name": "HUANJING 1B (HJ-1B)", "group": "resource", "lat": -34.64568106400211, "lon": 155.36910457653784, "alt_km": 648.6954651992592, "timestamp": "2025-12-14T18:52:55.154842+00:00", "meta": {"OBJECT_NAME": "HUANJING 1B (HJ-1B)", "OBJECT_ID": "2008-041B", "EPOCH": "2025-12-14T00:06:14.437728", "MEAN_MOTION": 14.82827488, "ECCENTRICITY": 0.00381461, "INCLINATION": 97.6402, "RA_OF_ASC_NODE": 339.9437, "ARG_OF_PERICENTER": 71.7772, "MEAN_ANOMALY": 288.7588, "EPHEMERIS_TYPE": 0, "CLASSIFICATION_TYPE": "U", "NORAD_CAT_ID": 33321, "ELEMENT_SET_NO": 999, "REV_AT_EPOCH": 93096, "BSTAR": 0.00029154852, "MEAN_MOTION_DOT": 2.338e-05, "MEAN_MOTION_DDOT": 0}, "tle": {"line1": "1 33321U 08041B   25348.00433377  .00002338  00000+0  29155-3 0  9994", "line2": "2 33321  97.6402 339.9437 0038146  71.7772 288.7588 14.82827488930968"}}, "geometry": {"type": "Point", "coordinates": [155.36910457653784, -34.64568106400211]}}, {"type": "Feature", "properties": {"norad_id": 33331, "name": "GEOEYE 1", "group": "resource", "lat": 66.95710055140292, "lon": 40.416543580905156, "alt_km": 672.9478730224164, "timestamp": "2025-12-14T18:52:55.154853+00:00", "meta": {"OBJECT_NAME": "GEOEYE 1", "OBJECT_ID": "2008-042A", "EPOCH": "2025-12-13T22:53:52.805760", "MEAN_MOTION": 14.64814755, "ECCENTRICITY": 0.00027247, "INCLINATION": 98.1252, "RA_OF_ASC_NODE": 59.2197, "ARG_OF_PERICENTER": 270.5851, "MEAN_ANOMALY": 89.504, "EPHEMERIS_TYPE": 0, "CLASSIFICATION_TYPE": "U", "NORAD_CAT_ID": 33331, "ELEMENT_SET_NO": 999, "REV_AT_EPOCH": 92303, "BSTAR": 0.00016539616, "MEAN_MOTION_DOT": 8.35e-06, "MEAN_MOTION_DDOT": 0}, "tle": {"line1": "1 33331U 08042A   25347.95408340  .00000835  00000+0  16540-3 0  9995", "line2": "2 33331  98.1252  59.2197 0002724 270.5851  89.5040 14.64814755923036"}}, "geometry": {"type": "Point", "coordinates": [40.416543580905156, 66.95710055140292]}}, {"type": "Feature", "properties": {"norad_id": 33396, "name": "THEOS", "group": "resource", "lat": -43.3182582252963, "lon": 55.00663196438757, "alt_km": 832.2600825705567, "timestamp": "2025-12-14T18:52:55.154863+00:00", "meta": {"OBJECT_NAME": "THEOS", "OBJECT_ID": "2008-049A", "EPOCH": "2025-12-14T00:29:15.690336", "MEAN_MOTION": 14.20096071, "ECCENTRICITY": 0.00011739, "INCLINATION": 98.5866, "RA_OF_ASC_NODE": 46.0719, "ARG_OF_PERICENTER": 95.1928, "MEAN_ANOMALY": 264.9383, "EPHEMERIS_TYPE": 0, "CLASSIFICATION_TYPE": "U", "NORAD_CAT_ID": 33396, "ELEMENT_SET_NO": 999, "REV_AT_EPOCH": 89168, "BSTAR": 2.6337858e-05, "MEAN_MOTION_DOT": 1.4e-07, "MEAN_MOTION_DDOT": 0}, "tle": {"line1": "1 33396U 08049A   25348.02032049  .00000014  00000+0  26338-4 0  9997", "line2": "2 33396  98.5866  46.0719 0001173  95.1928 264.9383 14.20096071891688"}}, "geometry": {"type": "Point", "coordinates": [55.00663196438757, -43.3182582252963]}}, {"type": "Feature", "properties": {"norad_id": 33412, "name": "COSMO-SKYMED 3", "group": "resource", "lat": -48.416553520736045, "lon": -151.8448763729709, "alt_km": 566.2759384355004, "timestamp": "2025-12-14T18:52:55.154874+00:00", "meta": {"OBJECT_NAME": "COSMO-SKYMED 3", "OBJECT_ID": "2008-054A", "EPOCH": "2025-12-13T23:57:24.621696", "MEAN_MOTION": 15.05380991, "ECCENTRICITY": 0.00161243, "INCLINATION": 97.8477, "RA_OF_ASC_NODE": 198.4111, "ARG_OF_PERICENTER": 169.0623, "MEAN_ANOMALY": 191.0957, "EPHEMERIS_TYPE": 0, "CLASSIFICATION_TYPE": "U", "NORAD_CAT_ID": 33412, "ELEMENT_SET_NO": 999, "REV_AT_EPOCH": 92906, "BSTAR": 0.00068788489, "MEAN_MOTION_DOT": 9.831e-05, "MEAN_MOTION_DDOT": 0}, "tle": {"line1": "1 33412U 08054A   25347.99820164  .00009831  00000+0  68788-3 0  9990", "line2": "2 33412  97.8477 198.4111 0016124 169.0623 191.0957 15.05380991929062"}}, "geometry": {"type": "Point", "coordinates": [-151.8448763729709, -48.416553520736045]}}, {"type": "Feature", "properties": {"norad_id": 33446, "name": "YAOGAN-4", "group": "resource", "lat": 53.84114803965361, "lon": 109.84449297502245, "alt_km": 625.0553095261484, "timestamp": "2025-12-14T18:52:55.154885+00:00", "meta": {"OBJECT_NAME": "YAOGAN-4", "OBJECT_ID": "2008-061A", "EPOCH": "2025-12-13T19:38:34.739232", "MEAN_MOTION": 14.82687573, "ECCENTRICITY": 0.00135062, "INCLINATION": 97.9179, "RA_OF_ASC_NODE": 277.9072, "ARG_OF_PERICENTER": 319.5483, "MEAN_ANOMALY": 40.4725, "EPHEMERIS_TYPE": 0, "CLASSIFICATION_TYPE": "U", "NORAD_CAT_ID": 33446, "ELEMENT_SET_NO": 999, "REV_AT_EPOCH": 91819, "BSTAR": 0.00027850382, "MEAN_MOTION_DOT": 2.196e-05, "MEAN_MOTION_DDOT": 0}, "tle": {"line1": "1 33446U 08061A   25347.81845763  .00002196  00000+0  27850-3 0  9990", "line2": "2 33446  97.9179 277.9072 0013506 319.5483  40.4725 14.82687573918197"}}, "geometry": {"type": "Point", "coordinates": [109.84449297502245, 53.84114803965361]}}]}